{
  "type": "FeatureCollection",
  "features": [
    {
      "type": "Feature",
      "properties": {
        "norad_id": 35052,
        "name": "IRIDIUM 33 DEB",
        "group": "iridium-33-debris",
        "lat": -8.556532087328822,
        "lon": -157.09901291557483,
        "alt_km": 767.8576913966817,
        "timestamp": "2025-12-08T08:59:01.151753+00:00",
        "meta_object_name": "IRIDIUM 33 DEB",
        "meta_object_id": "1997-051NY",
        "meta_epoch": "2025-12-07T20:25:31.207296",
        "meta_mean_motion": 14.38483382,
        "meta_eccentricity": 0.00136742,
        "meta_inclination": 86.3314,
        "meta_ra_of_asc_node": 22.5721,
        "meta_arg_of_pericenter": 98.6502,
        "meta_mean_anomaly": 261.6246,
        "meta_ephemeris_type": 0,
        "meta_classification_type": "U",
        "meta_norad_cat_id": 35052,
        "meta_element_set_no": 999,
        "meta_rev_at_epoch": 87205,
        "meta_bstar": 0.00029940676,
        "meta_mean_motion_dot": 9.35e-06,
        "meta_mean_motion_ddot": 0,
        "tle_line1": "1 35052U 97051NY  25341.85105564  .00000935  00000+0  29941-3 0  9990",
        "tle_line2": "2 35052  86.3314  22.5721 0013674  98.6502 261.6246 14.38483382872055"
      },
      "geometry": {
        "type": "Point",
        "coordinates": [
          -157.09901291557483,
          -8.556532087328822
        ]
      }
    },
    {
      "type": "Feature",
      "properties": {
        "norad_id": 35080,
        "name": "IRIDIUM 33 DEB",
        "group": "iridium-33-debris",
        "lat": -16.229272998182328,
        "lon": 53.355454011871025,
        "alt_km": 654.2197738341056,
        "timestamp": "2025-12-08T08:59:01.151763+00:00",
        "meta_object_name": "IRIDIUM 33 DEB",
        "meta_object_id": "1997-051PF",
        "meta_epoch": "2025-12-07T03:56:57.228000",
        "meta_mean_motion": 14.84984073,
        "meta_eccentricity": 0.00622366,
        "meta_inclination": 86.2081,
        "meta_ra_of_asc_node": 55.0388,
        "meta_arg_of_pericenter": 201.0012,
        "meta_mean_anomaly": 158.8655,
        "meta_ephemeris_type": 0,
        "meta_classification_type": "U",
        "meta_norad_cat_id": 35080,
        "meta_element_set_no": 999,
        "meta_rev_at_epoch": 69605,
        "meta_bstar": 0.011261596,
        "meta_mean_motion_dot": 0.00100643,
        "meta_mean_motion_ddot": 0,
        "tle_line1": "1 35080U 97051PF  25341.16455125  .00100643  00000+0  11262-1 0  9998",
        "tle_line2": "2 35080  86.2081  55.0388 0062236 201.0012 158.8655 14.84984073696059"
      },
      "geometry": {
        "type": "Point",
        "coordinates": [
          53.355454011871025,
          -16.229272998182328
        ]
      }
    },
    {
      "type": "Feature",
      "properties": {
        "norad_id": 35297,
        "name": "IRIDIUM 33 DEB",
        "group": "iridium-33-debris",
        "lat": -9.328706497499258,
        "lon": 64.02852060709643,
        "alt_km": 757.3766845168548,
        "timestamp": "2025-12-08T08:59:01.151774+00:00",
        "meta_object_name": "IRIDIUM 33 DEB",
        "meta_object_id": "1997-051PM",
        "meta_epoch": "2025-12-06T00:31:29.302752",
        "meta_mean_motion": 14.45108459,
        "meta_eccentricity": 0.00170329,
        "meta_inclination": 86.3867,
        "meta_ra_of_asc_node": 65.6268,
        "meta_arg_of_pericenter": 161.2449,
        "meta_mean_anomaly": 198.9384,
        "meta_ephemeris_type": 0,
        "meta_classification_type": "U",
        "meta_norad_cat_id": 35297,
        "meta_element_set_no": 999,
        "meta_rev_at_epoch": 70329,
        "meta_bstar": 0.0012426888,
        "meta_mean_motion_dot": 4.371e-05,
        "meta_mean_motion_ddot": 0,
        "tle_line1": "1 35297U 97051PM  25340.02186693  .00004371  00000+0  12427-2 0  9999",
        "tle_line2": "2 35297  86.3867  65.6268 0017032 161.2449 198.9384 14.45108459703293"
      },
      "geometry": {
        "type": "Point",
        "coordinates": [
          64.02852060709643,
          -9.328706497499258
        ]
      }
    },
    {
      "type": "Feature",
      "properties": {
        "norad_id": 35299,
        "name": "IRIDIUM 33 DEB",
        "group": "iridium-33-debris",
        "lat": -9.55948841694617,
        "lon": 34.460487051679934,
        "alt_km": 784.3153599305952,
        "timestamp": "2025-12-08T08:59:01.151784+00:00",
        "meta_object_name": "IRIDIUM 33 DEB",
        "meta_object_id": "1997-051PP",
        "meta_epoch": "2025-12-07T21:55:49.054080",
        "meta_mean_motion": 14.4082407,
        "meta_eccentricity": 0.00588567,
        "meta_inclination": 86.2883,
        "meta_ra_of_asc_node": 35.2873,
        "meta_arg_of_pericenter": 117.7399,
        "meta_mean_anomaly": 5.9721,
        "meta_ephemeris_type": 0,
        "meta_classification_type": "U",
        "meta_norad_cat_id": 35299,
        "meta_element_set_no": 999,
        "meta_rev_at_epoch": 86261,
        "meta_bstar": 0.0010762038,
        "meta_mean_motion_dot": 3.537e-05,
        "meta_mean_motion_ddot": 0,
        "tle_line1": "1 35299U 97051PP  25341.91376220  .00003537  00000+0  10762-2 0  9990",
        "tle_line2": "2 35299  86.2883  35.2873 0058856 117.7399   5.9721 14.40824070862619"
      },
      "geometry": {
        "type": "Point",
        "coordinates": [
          34.460487051679934,
          -9.55948841694617
        ]
      }
    },
    {
      "type": "Feature",
      "properties": {
        "norad_id": 35480,
        "name": "IRIDIUM 33 DEB",
        "group": "iridium-33-debris",
        "lat": -48.69980171398803,
        "lon": 22.64762553977148,
        "alt_km": 744.124443371008,
        "timestamp": "2025-12-08T08:59:01.151793+00:00",
        "meta_object_name": "IRIDIUM 33 DEB",
        "meta_object_id": "1997-051QA",
        "meta_epoch": "2025-12-01T21:29:27.496896",
        "meta_mean_motion": 14.49686619,
        "meta_eccentricity": 0.00155495,
        "meta_inclination": 86.3575,
        "meta_ra_of_asc_node": 29.6125,
        "meta_arg_of_pericenter": 136.7189,
        "meta_mean_anomaly": 223.524,
        "meta_ephemeris_type": 0,
        "meta_classification_type": "U",
        "meta_norad_cat_id": 35480,
        "meta_element_set_no": 999,
        "meta_rev_at_epoch": 86874,
        "meta_bstar": 0.000651702,
        "meta_mean_motion_dot": 2.53e-05,
        "meta_mean_motion_ddot": 0,
        "tle_line1": "1 35480U 97051QA  25335.89545714  .00002530  00000+0  65170-3 0  9994",
        "tle_line2": "2 35480  86.3575  29.6125 0015549 136.7189 223.5240 14.49686619868745"
      },
      "geometry": {
        "type": "Point",
        "coordinates": [
          22.64762553977148,
          -48.69980171398803
        ]
      }
    },
    {
      "type": "Feature",
      "properties": {
        "norad_id": 35484,
        "name": "IRIDIUM 33 DEB",
        "group": "iridium-33-debris",
        "lat": 68.94580956292592,
        "lon": 4.302448943393124,
        "alt_km": 561.3088373326591,
        "timestamp": "2025-12-08T08:59:01.151804+00:00",
        "meta_object_name": "IRIDIUM 33 DEB",
        "meta_object_id": "1997-051QE",
        "meta_epoch": "2025-12-01T19:32:14.692416",
        "meta_mean_motion": 14.97587734,
        "meta_eccentricity": 0.00218288,
        "meta_inclination": 86.3628,
        "meta_ra_of_asc_node": 357.8533,
        "meta_arg_of_pericenter": 162.6444,
        "meta_mean_anomaly": 197.5538,
        "meta_ephemeris_type": 0,
        "meta_classification_type": "U",
        "meta_norad_cat_id": 35484,
        "meta_element_set_no": 999,
        "meta_rev_at_epoch": 61852,
        "meta_bstar": 0.0025030806,
        "meta_mean_motion_dot": 0.00029486,
        "meta_mean_motion_ddot": 0,
        "tle_line1": "1 35484U 97051QE  25335.81405894  .00029486  00000+0  25031-2 0  9994",
        "tle_line2": "2 35484  86.3628 357.8533 0021828 162.6444 197.5538 14.97587734618526"
      },
      "geometry": {
        "type": "Point",
        "coordinates": [
          4.302448943393124,
          68.94580956292592
        ]
      }
    },
    {
      "type": "Feature",
      "properties": {
        "norad_id": 35488,
        "name": "IRIDIUM 33 DEB",
        "group": "iridium-33-debris",
        "lat": 64.29385811678503,
        "lon": -49.43700363631023,
        "alt_km": 592.9693975441787,
        "timestamp": "2025-12-08T08:59:01.151814+00:00",
        "meta_object_name": "IRIDIUM 33 DEB",
        "meta_object_id": "1997-051QJ",
        "meta_epoch": "2025-12-07T14:52:48.765504",
        "meta_mean_motion": 14.82861874,
        "meta_eccentricity": 0.00304076,
        "meta_inclination": 86.3248,
        "meta_ra_of_asc_node": 303.2376,
        "meta_arg_of_pericenter": 59.1237,
        "meta_mean_anomaly": 301.297,
        "meta_ephemeris_type": 0,
        "meta_classification_type": "U",
        "meta_norad_cat_id": 35488,
        "meta_element_set_no": 999,
        "meta_rev_at_epoch": 88190,
        "meta_bstar": 0.002489408,
        "meta_mean_motion_dot": 0.00020383,
        "meta_mean_motion_ddot": 0,
        "tle_line1": "1 35488U 97051QJ  25341.62000886  .00020383  00000+0  24894-2 0  9999",
        "tle_line2": "2 35488  86.3248 303.2376 0030407  59.1237 301.2970 14.82861874881903"
      },
      "geometry": {
        "type": "Point",
        "coordinates": [
          -49.43700363631023,
          64.29385811678503
        ]
      }
    }
  ]
}